[
  {
    "name": "WV3-STARLINK35956-Picture",
    "description": "WorldView-3 vs Starlink close-imaging setup",
    "anchor": "2025-12-19T01:30:00Z",
    "satellites": [
      {
        "noradId": 40115,
        "role": "A",
        "tles": [
          "1 40115U 14048A   25350.34446038  .00001065  00000-0  12954-3 0  9991\n2 40115  97.8614  62.5794 0005054 173.0688 187.0598 14.85520725614770",
          "1 40115U 14048A   25350.95067920  .00000991  00000-0  12090-3 0  9995\n2 40115  97.8613  63.1780 0005108 171.1729 188.9577 14.85522182614862",
          "1 40115U 14048A   25351.28746733  .00000969  00000-0  11844-3 0  9999\n2 40115  97.8612  63.5105 0005130 170.1438 189.9878 14.85523011614910",
          "1 40115U 14048A   25351.62425533  .00000921  00000-0  11282-3 0  9993\n2 40115  97.8612  63.8431 0005162 169.1037 191.0291 14.85523650614960",
          "1 40115U 14048A   25351.82632810  .00000923  00000-0  11309-3 0  9995\n2 40115  97.8612  64.0426 0005176 168.4648 191.6687 14.85524143614998",
          "1 40115U 14048A   25352.23066906  .00000882  00000-0  11059-3 0  9994\n2 40115  97.8774  64.4419 0001686 140.5848 219.5489 14.84660813615050",
          "1 40115U 14048A   25352.63504949  .00000825  00000-0  10389-3 0  9994\n2 40115  97.8775  64.8416 0001682 139.1546 220.9795 14.84660894615119",
          "1 40115U 14048A   25352.90463620  .00000841  00000-0  10574-3 0  9998\n2 40115  97.8774  65.1080 0001711 138.8396 221.2947 14.84661456615153",
          "1 40115U 14048A   25353.24161950  .00000793  00000-0  10008-3 0  9995\n2 40115  97.8773  65.4410 0001733 138.3296 221.8051 14.84661803615204",
          "1 40115U 14048A   25353.64599932  .00000777  00000-0  98130-4 0  9999\n2 40115  97.8773  65.8405 0001761 137.8017 222.3333 14.84662431615261",
          "1 40115U 14048A   25353.71339591  .00000774  00000-0  97873-4 0  9990\n2 40115  97.8773  65.9071 0001764 137.6970 222.4381 14.84662552615279",
          "1 40115U 14048A   25353.78079253  .00000773  00000-0  97662-4 0  9998\n2 40115  97.8772  65.9737 0001764 137.5396 222.5955 14.84662657615283",
          "1 40115U 14048A   25353.91558574  .00000768  00000-0  97152-4 0  9999\n2 40115  97.8772  66.1069 0001772 137.3575 222.7777 14.84662854615306",
          "1 40115U 14048A   25354.18517204  .00000744  00000-0  94225-4 0  9996\n2 40115  97.8771  66.3732 0001781 137.0431 223.0922 14.84663310615340",
          "1 40115U 14048A   25354.18517204  .00000744  00000-0  94225-4 0  9996\n2 40115  97.8771  66.3732 0001781 137.0431 223.0922 14.84663310615340",
          "1 40115U 14048A   25354.45475824  .00000773  00000-0  97643-4 0  9996\n2 40115  97.8771  66.6396 0001796 136.5059 223.6297 14.84663942615381",
          "1 40115U 14048A   25354.45475825  .00000773  00000-0  97643-4 0  9997\n2 40115  97.8771  66.6396 0001796 136.5059 223.6297 14.84663942615381",
          "1 40115U 14048A   25354.79174091  .00000715  00000-0  90899-4 0  9997\n2 40115  97.8770  66.9726 0001816 136.0463 224.0896 14.84664274615432",
          "1 40115U 14048A   25354.92653396  .00000725  00000-0  91978-4 0  9992\n2 40115  97.8770  67.1057 0001823 135.8247 224.3114 14.84664617615456",
          "1 40115U 14048A   25355.19611992  .00000719  00000-0  91274-4 0  9990\n2 40115  97.8769  67.3721 0001832 135.4397 224.6965 14.84665073615494",
          "1 40115U 14048A   25355.26351628  .00000848  00000-0  10657-3 0  9993\n2 40115  97.8769  67.4387 0001832 135.3625 224.7738 14.84665896615500",
          "1 40115U 14048A   25355.46570562  .00000844  00000-0  10611-3 0  9991\n2 40115  97.8769  67.6385 0001846 134.9342 225.2022 14.84666267615534",
          "1 40115U 14048A   25355.46570563  .00000844  00000-0  10611-3 0  9992\n2 40115  97.8769  67.6385 0001846 134.9342 225.2022 14.84666267615534",
          "1 40115U 14048A   25355.80268773  .00000834  00000-0  10495-3 0  9996\n2 40115  97.8768  67.9714 0001862 134.3123 225.8245 14.84666878615587"
        ]
      },
      {
        "noradId": 66620,
        "role": "B",
        "tles": [
          "1 66620U 25271D   25349.33335648  .00069454  00000-0  12476-2 0  9995\n2 66620  53.1595 174.8277 0000850  72.9145  91.6448 15.49265927  4665",
          "1 66620U 25271D   25349.91668981  .00078363  00000-0  14055-2 0  9992\n2 66620  53.1591 172.0407 0001030  67.3574 112.6206 15.49257406  4750",
          "1 66620U 25271D   25350.25003472  .00035242  00000-0  63952-3 0  9999\n2 66620  53.1588 170.4449 0000971  85.0403 155.2232 15.49279151  4804",
          "1 66620U 25271D   25350.91659374  .00072155  00000-0  12924-2 0  9996\n2 66620  53.1594 167.2583 0001011  73.6747 286.4374 15.49331814  4858",
          "1 66620U 25271D   25351.11012073  .00067036  00000-0  12027-2 0  9994\n2 66620  53.1595 166.3336 0001328  61.4490 298.6653 15.49318301  4880",
          "1 66620U 25271D   25351.62618341  .00066138  00000-0  11865-2 0  9991\n2 66620  53.1599 163.8656 0001254  90.3166 269.7987 15.49324687  4962",
          "1 66620U 25271D   25351.88421566  .00067856  00000-0  12164-2 0  9991\n2 66620  53.1598 162.6324 0000934  77.1817 282.9297 15.49335274  5001",
          "1 66620U 25271D   25352.27126318  .00039571  00000-0  71543-3 0  9992\n2 66620  53.1601 160.7823 0000850  76.6318 283.4786 15.49329114  5067",
          "1 66620U 25271D   25352.59380185  .00072798  00000-0  13029-2 0  9993\n2 66620  53.1598 159.2400 0001065  75.4151 284.6977 15.49350533  5117",
          "1 66620U 25271D   25352.85183634  .00034317  00000-0  62165-3 0  9993\n2 66620  53.1598 158.0059 0001202  74.9181 285.1961 15.49341209  5157",
          "1 66620U 25271D   25353.94998243 -.00389636  00000-0 -84825-2 0  9999\n2 66620  53.1593 152.7719 0001217  60.4895 299.6234 15.45204148  5322",
          "1 66620U 25271D   25355.96038664  .00072102  00000-0  17924-2 0  9996\n2 66620  53.1599 143.2712 0001851 170.8964 189.2075 15.39672113  5638"
        ]
      }
    ]
  }
]
